0 DELTA 1 DEB
1 37670U 78026KH  13281.88656562  .00000015  00000-0  46853-4 0  1647
2 37670 098.8118 302.8141 0072652 086.0567 274.8895 13.86555850533856
0 DELTA 1 DEB
1 37670U 78026KH  13283.90705523  .00000017  00000-0  47841-4 0  1655
2 37670 098.8115 304.7169 0072669 080.5806 280.3568 13.86556125534134
0 DELTA 1 DEB
1 37670U 78026KH  13286.28834411  .00000017  00000-0  47854-4 0  1663
2 37670 098.8112 306.9583 0072848 074.2355 286.6824 13.86556405534464
0 DELTA 1 DEB
1 37670U 78026KH  13290.25715325  .00000017  00000-0  48617-4 0  1676
2 37670 098.8107 310.6947 0072961 063.6580 297.2062 13.86556927535015
0 DELTA 1 DEB
1 37670U 78026KH  13292.27763442  .00000019  00000-0  50289-4 0  1684
2 37670 098.8106 312.5970 0072987 058.2683 302.5570 13.86557273535292
0 DELTA 1 DEB
1 37670U 78026KH  13294.29811394  .00000022  00000-0  52544-4 0  1699
2 37670 098.8103 314.4998 0072904 052.6278 308.1496 13.86557647535572
